{"type": "FeatureCollection", "features": [ {"type": "Feature", "properties": {"norad_id": 54031, "name": "COSMOS 2559 (707K)", "group": "gnss", "lat": 42.957302632260365, "lon": -12.661836896971641, "alt_km": 19148.382626836374, "timestamp": "2025-12-21T14:40:48.160508+00:00", "meta": {"OBJECT_NAME": "COSMOS 2559 (707K)", "OBJECT_ID": "2022-130A", "EPOCH": "2025-12-21T01:52:43.812768", "MEAN_MOTION": 2.13101354, "ECCENTRICITY": 0.00115601, "INCLINATION": 64.3775, "RA_OF_ASC_NODE": 320.8478, "ARG_OF_PERICENTER": 191.8523, "MEAN_ANOMALY": 168.1144, "EPHEMERIS_TYPE": 0, "CLASSIFICATION_TYPE": "U", "NORAD_CAT_ID": 54031, "ELEMENT_SET_NO": 999, "REV_AT_EPOCH": 2489, "BSTAR": 0, "MEAN_MOTION_DOT": -5e-07, "MEAN_MOTION_DDOT": 0}, "tle": {"line1": "1 54031U 22130A   25355.07828487 -.00000050  00000+0  00000+0 0  9999", "line2": "2 54031  64.3775 320.8478 0011560 191.8523 168.1144  2.13101354 24899"}}, "geometry": {"type": "Point", "coordinates": [-12.661836896971641, 42.957302632260365]}}, {"type": "Feature", "properties": {"norad_id": 54377, "name": "COSMOS 2564 (761)", "group": "gnss", "lat": 10.198108223889959, "lon": 13.733477669611492, "alt_km": 19111.243516237148, "timestamp": "2025-12-21T14:40:48.160520+00:00", "meta": {"OBJECT_NAME": "COSMOS 2564 (761)", "OBJECT_ID": "2022-161A", "EPOCH": "2025-12-20T22:08:20.201856", "MEAN_MOTION": 2.13102061, "ECCENTRICITY": 0.00085464, "INCLINATION": 64.7387, "RA_OF_ASC_NODE": 198.627, "ARG_OF_PERICENTER": 203.7858, "MEAN_ANOMALY": 156.2488, "EPHEMERIS_TYPE": 0, "CLASSIFICATION_TYPE": "U", "NORAD_CAT_ID": 54377, "ELEMENT_SET_NO": 999, "REV_AT_EPOCH": 2383, "BSTAR": 0, "MEAN_MOTION_DOT": 9.9e-07, "MEAN_MOTION_DDOT": 0}, "tle": {"line1": "1 54377U 22161A   25354.92245604  .00000099  00000+0  00000+0 0  9995", "line2": "2 54377  64.7387 198.6270 0008546 203.7858 156.2488  2.13102061 23838"}}, "geometry": {"type": "Point", "coordinates": [13.733477669611492, 10.198108223889959]}}, {"type": "Feature", "properties": {"norad_id": 55268, "name": "GPS BIII-6  (PRN 28)", "group": "gnss", "lat": 50.82622054956525, "lon": -83.4643807362459, "alt_km": 20180.76644282628, "timestamp": "2025-12-21T14:40:48.160531+00:00", "meta": {"OBJECT_NAME": "GPS BIII-6  (PRN 28)", "OBJECT_ID": "2023-009A", "EPOCH": "2025-12-20T11:03:51.058368", "MEAN_MOTION": 2.00555101, "ECCENTRICITY": 0.00036997, "INCLINATION": 55.1064, "RA_OF_ASC_NODE": 155.5422, "ARG_OF_PERICENTER": 356.2335, "MEAN_ANOMALY": 1.8873, "EPHEMERIS_TYPE": 0, "CLASSIFICATION_TYPE": "U", "NORAD_CAT_ID": 55268, "ELEMENT_SET_NO": 999, "REV_AT_EPOCH": 2165, "BSTAR": 0, "MEAN_MOTION_DOT": 6.5e-07, "MEAN_MOTION_DDOT": 0}, "tle": {"line1": "1 55268U 23009A   25354.46100762  .00000065  00000+0  00000+0 0  9994", "line2": "2 55268  55.1064 155.5422 0003699 356.2335   1.8873  2.00555101 21657"}}, "geometry": {"type": "Point", "coordinates": [-83.4643807362459, 50.82622054956525]}}, {"type": "Feature", "properties": {"norad_id": 56564, "name": "BEIDOU-3 G4 (C62)", "group": "gnss", "lat": 0.19054088900255214, "lon": 110.65434832518359, "alt_km": 35780.23186998169, "timestamp": "2025-12-21T14:40:48.160543+00:00", "meta": {"OBJECT_NAME": "BEIDOU-3 G4 (C62)", "OBJECT_ID": "2023-066A", "EPOCH": "2025-12-21T05:23:59.186976", "MEAN_MOTION": 1.00271436, "ECCENTRICITY": 0.00026905, "INCLINATION": 0.7974, "RA_OF_ASC_NODE": 302.7043, "ARG_OF_PERICENTER": 226.3582, "MEAN_ANOMALY": 162.0421, "EPHEMERIS_TYPE": 0, "CLASSIFICATION_TYPE": "U", "NORAD_CAT_ID": 56564, "ELEMENT_SET_NO": 999, "REV_AT_EPOCH": 961, "BSTAR": 0, "MEAN_MOTION_DOT": -8.7e-07, "MEAN_MOTION_DDOT": 0}, "tle": {"line1": "1 56564U 23066A   25355.22499059 -.00000087  00000+0  00000+0 0  9997", "line2": "2 56564   0.7974 302.7043 0002690 226.3582 162.0421  1.00271436  9615"}}, "geometry": {"type": "Point", "coordinates": [110.65434832518359, 0.19054088900255214]}}, {"type": "Feature", "properties": {"norad_id": 56759, "name": "NVS-01 (IRNSS-1J)", "group": "gnss", "lat": -0.3738493807139403, "lon": 80.18193797454329, "alt_km": 35822.53103733505, "timestamp": "2025-12-21T14:40:48.160555+00:00", "meta": {"OBJECT_NAME": "NVS-01 (IRNSS-1J)", "OBJECT_ID": "2023-076A", "EPOCH": "2025-12-21T05:15:15.024096", "MEAN_MOTION": 1.00273327, "ECCENTRICITY": 0.00087519, "INCLINATION": 2.5986, "RA_OF_ASC_NODE": 251.2979, "ARG_OF_PERICENTER": 16.3681, "MEAN_ANOMALY": 30.7439, "EPHEMERIS_TYPE": 0, "CLASSIFICATION_TYPE": "U", "NORAD_CAT_ID": 56759, "ELEMENT_SET_NO": 999, "REV_AT_EPOCH": 933, "BSTAR": 0, "MEAN_MOTION_DOT": -3.1e-06, "MEAN_MOTION_DDOT": 0}, "tle": {"line1": "1 56759U 23076A   25355.21892389 -.00000310  00000+0  00000+0 0  9995", "line2": "2 56759   2.5986 251.2979 0008751  16.3681  30.7439  1.00273327  9331"}}, "geometry": {"type": "Point", "coordinates": [80.18193797454329, -0.3738493807139403]}}, {"type": "Feature", "properties": {"norad_id": 57517, "name": "COSMOS 2569 (703K)", "group": "gnss", "lat": 19.569759504479684, "lon": -110.81687507025596, "alt_km": 19144.871198813842, "timestamp": "2025-12-21T14:40:48.160567+00:00", "meta": {"OBJECT_NAME": "COSMOS 2569 (703K)", "OBJECT_ID": "2023-114A", "EPOCH": "2025-12-20T11:11:48.591168", "MEAN_MOTION": 2.13103983, "ECCENTRICITY": 0.00107986, "INCLINATION": 65.1981, "RA_OF_ASC_NODE": 78.6524, "ARG_OF_PERICENTER": 287.0398, "MEAN_ANOMALY": 72.8764, "EPHEMERIS_TYPE": 0, "CLASSIFICATION_TYPE": "U", "NORAD_CAT_ID": 57517, "ELEMENT_SET_NO": 999, "REV_AT_EPOCH": 1845, "BSTAR": 0, "MEAN_MOTION_DOT": -1.8e-07, "MEAN_MOTION_DDOT": 0}, "tle": {"line1": "1 57517U 23114A   25354.46653462 -.00000018  00000+0  00000+0 0  9999", "line2": "2 57517  65.1981  78.6524 0010798 287.0398  72.8764  2.13103983 18453"}}, "geometry": {"type": "Point", "coordinates": [-110.81687507025596, 19.569759504479684]}}, {"type": "Feature", "properties": {"norad_id": 58654, "name": "BEIDOU-3 M28 (C50)", "group": "gnss", "lat": 24.671843695654665, "lon": 86.64230570712606, "alt_km": 21528.675823741574, "timestamp": "2025-12-21T14:40:48.160578+00:00", "meta": {"OBJECT_NAME": "BEIDOU-3 M28 (C50)", "OBJECT_ID": "2023-207A", "EPOCH": "2025-12-18T08:16:11.764704", "MEAN_MOTION": 1.86229821, "ECCENTRICITY": 0.00026501, "INCLINATION": 55.5892, "RA_OF_ASC_NODE": 68.4116, "ARG_OF_PERICENTER": 272.4264, "MEAN_ANOMALY": 87.5728, "EPHEMERIS_TYPE": 0, "CLASSIFICATION_TYPE": "U", "NORAD_CAT_ID": 58654, "ELEMENT_SET_NO": 999, "REV_AT_EPOCH": 1347, "BSTAR": 0, "MEAN_MOTION_DOT": -6.6e-07, "MEAN_MOTION_DDOT": 0}, "tle": {"line1": "1 58654U 23207A   25352.34458061 -.00000066  00000+0  00000+0 0  9991", "line2": "2 58654  55.5892  68.4116 0002650 272.4264  87.5728  1.86229821 13471"}}, "geometry": {"type": "Point", "coordinates": [86.64230570712606, 24.671843695654665]}}, {"type": "Feature", "properties": {"norad_id": 58655, "name": "BEIDOU-3 M26 (C48)", "group": "gnss", "lat": 11.46479058577311, "lon": -119.6713912634317, "alt_km": 21527.242285037566, "timestamp": "2025-12-21T14:40:48.160604+00:00", "meta": {"OBJECT_NAME": "BEIDOU-3 M26 (C48)", "OBJECT_ID": "2023-207B", "EPOCH": "2025-12-19T05:11:10.015296", "MEAN_MOTION": 1.86231346, "ECCENTRICITY": 0.0004042, "INCLINATION": 55.592, "RA_OF_ASC_NODE": 68.3684, "ARG_OF_PERICENTER": 258.4158, "MEAN_ANOMALY": 101.5732, "EPHEMERIS_TYPE": 0, "CLASSIFICATION_TYPE": "U", "NORAD_CAT_ID": 58655, "ELEMENT_SET_NO": 999, "REV_AT_EPOCH": 1347, "BSTAR": 0, "MEAN_MOTION_DOT": -5.7e-07, "MEAN_MOTION_DDOT": 0}, "tle": {"line1": "1 58655U 23207B   25353.21608814 -.00000057  00000+0  00000+0 0  9992", "line2": "2 58655  55.5920  68.3684 0004042 258.4158 101.5732  1.86231346 13473"}}, "geometry": {"type": "Point", "coordinates": [-119.6713912634317, 11.46479058577311]}}, {"type": "Feature", "properties": {"norad_id": 59598, "name": "GSAT0225 (GALILEO 29)", "group": "gnss", "lat": -29.479344984897445, "lon": 82.75175339299241, "alt_km": 23230.646292088823, "timestamp": "2025-12-21T14:40:48.160618+00:00", "meta": {"OBJECT_NAME": "GSAT0225 (GALILEO 29)", "OBJECT_ID": "2024-079A", "EPOCH": "2025-12-19T07:40:30.040032", "MEAN_MOTION": 1.7047502, "ECCENTRICITY": 0.0002191, "INCLINATION": 55.0052, "RA_OF_ASC_NODE": 106.1117, "ARG_OF_PERICENTER": 185.2617, "MEAN_ANOMALY": 171.1938, "EPHEMERIS_TYPE": 0, "CLASSIFICATION_TYPE": "U", "NORAD_CAT_ID": 59598, "ELEMENT_SET_NO": 999, "REV_AT_EPOCH": 1024, "BSTAR": 0, "MEAN_MOTION_DOT": -6e-08, "MEAN_MOTION_DDOT": 0}, "tle": {"line1": "1 59598U 24079A   25353.31979213 -.00000006  00000+0  00000+0 0  9996", "line2": "2 59598  55.0052 106.1117 0002191 185.2617 171.1938  1.70475020 10248"}}, "geometry": {"type": "Point", "coordinates": [82.75175339299241, -29.479344984897445]}}, {"type": "Feature", "properties": {"norad_id": 59600, "name": "GSAT0227 (GALILEO 30)", "group": "gnss", "lat": -24.654221737326214, "lon": -55.22839029896375, "alt_km": 23225.88380517093, "timestamp": "2025-12-21T14:40:48.160645+00:00", "meta": {"OBJECT_NAME": "GSAT0227 (GALILEO 30)", "OBJECT_ID": "2024-079C", "EPOCH": "2025-12-19T12:12:51.636672", "MEAN_MOTION": 1.70474897, "ECCENTRICITY": 0.0002924, "INCLINATION": 55.0006, "RA_OF_ASC_NODE": 106.105, "ARG_OF_PERICENTER": 116.8359, "MEAN_ANOMALY": 243.1562, "EPHEMERIS_TYPE": 0, "CLASSIFICATION_TYPE": "U", "NORAD_CAT_ID": 59600, "ELEMENT_SET_NO": 999, "REV_AT_EPOCH": 1030, "BSTAR": 0, "MEAN_MOTION_DOT": -6e-08, "MEAN_MOTION_DDOT": 0}, "tle": {"line1": "1 59600U 24079C   25353.50893098 -.00000006  00000+0  00000+0 0  9997", "line2": "2 59600  55.0006 106.1050 0002924 116.8359 243.1562  1.70474897 10305"}}, "geometry": {"type": "Point", "coordinates": [-55.22839029896375, -24.654221737326214]}}]}